[{"OBJECT_NAME":"PRAETORIAN SDA_607","OBJECT_ID":"2025-203F","EPOCH":"2026-03-09T13:46:16.238784","MEAN_MOTION":13.84462872,"ECCENTRICITY":0.0010314,"INCLINATION":81.3011,"RA_OF_ASC_NODE":102.9152,"ARG_OF_PERICENTER":101.231,"MEAN_ANOMALY":259.0007,"EPHEMERIS_TYPE":0,"CLASSIFICATION_TYPE":"U","NORAD_CAT_ID":65570,"ELEMENT_SET_NO":999,"REV_AT_EPOCH":2492,"BSTAR":0.00022168,"MEAN_MOTION_DOT":2.6e-6,"MEAN_MOTION_DDOT":0},{"OBJECT_NAME":"COSMOS 397 DEB","OBJECT_ID":"1971-015BN","EPOCH":"2026-03-09T13:57:58.974048","MEAN_MOTION":13.80588716,"ECCENTRICITY":0.006619,"INCLINATION":65.783,"RA_OF_ASC_NODE":244.4199,"ARG_OF_PERICENTER":358.2219,"MEAN_ANOMALY":63.4948,"EPHEMERIS_TYPE":0,"CLASSIFICATION_TYPE":"U","NORAD_CAT_ID":5416,"ELEMENT_SET_NO":999,"REV_AT_EPOCH":27907,"BSTAR":0.0012234,"MEAN_MOTION_DOT":1.224e-5,"MEAN_MOTION_DDOT":0}]
